[
  {
    "OBJECT_NAME": "STARLINK-1047",
    "OBJECT_ID": "19074AR",
    "EPOCH": "2025-11-11T06:44:04.303968",
    "MEAN_MOTION": 15.29514583,
    "ECCENTRICITY": 0.0002306,
    "INCLINATION": 53.0714,
    "RA_OF_ASC_NODE": 337.8943,
    "ARG_OF_PERICENTER": 186.7792,
    "MEAN_ANOMALY": 173.3177,
    "EPHEMERIS_TYPE": 0,
    "CLASSIFICATION_TYPE": "U",
    "NORAD_CAT_ID": 44752,
    "ELEMENT_SET_NO": 999,
    "REV_AT_EPOCH": 33120,
    "BSTAR": 0.00053076,
    "MEAN_MOTION_DOT": 0.00015066,
    "MEAN_MOTION_DDOT": 0.0,
    "TLE_LINE1": "1 44752U 19074AR  25315.28060537  .00015066  00000+0  53076-3 0  9991",
    "TLE_LINE2": "2 44752  53.0714 337.8943 0002306 186.7792 173.3177 15.29514583331203",
    "COMMENT": "Grouped by shell and plane from TLE"
  },
  {
    "OBJECT_NAME": "STARLINK-1305",
    "OBJECT_ID": "20019T",
    "EPOCH": "2025-11-11T06:10:16.899456",
    "MEAN_MOTION": 15.32716608,
    "ECCENTRICITY": 0.0003076,
    "INCLINATION": 53.0546,
    "RA_OF_ASC_NODE": 334.0484,
    "ARG_OF_PERICENTER": 42.4487,
    "MEAN_ANOMALY": 317.6751,
    "EPHEMERIS_TYPE": 0,
    "CLASSIFICATION_TYPE": "U",
    "NORAD_CAT_ID": 45377,
    "ELEMENT_SET_NO": 999,
    "REV_AT_EPOCH": 31194,
    "BSTAR": 0.0021312,
    "MEAN_MOTION_DOT": 0.00068543,
    "MEAN_MOTION_DDOT": 0.0,
    "TLE_LINE1": "1 45377U 20019T   25315.25714004  .00068543  00000+0  21312-2 0  9993",
    "TLE_LINE2": "2 45377  53.0546 334.0484 0003076  42.4487 317.6751 15.32716608311949",
    "COMMENT": "Grouped by shell and plane from TLE"
  },
  {
    "OBJECT_NAME": "STARLINK-1319",
    "OBJECT_ID": "20019V",
    "EPOCH": "2025-11-11T08:00:03.000384",
    "MEAN_MOTION": 15.3720403,
    "ECCENTRICITY": 0.0002125,
    "INCLINATION": 53.0545,
    "RA_OF_ASC_NODE": 335.7506,
    "ARG_OF_PERICENTER": 65.7055,
    "MEAN_ANOMALY": 62.9197,
    "EPHEMERIS_TYPE": 0,
    "CLASSIFICATION_TYPE": "U",
    "NORAD_CAT_ID": 45379,
    "ELEMENT_SET_NO": 999,
    "REV_AT_EPOCH": 575,
    "BSTAR": 0.0022528,
    "MEAN_MOTION_DOT": 0.00083825,
    "MEAN_MOTION_DDOT": 0.0,
    "TLE_LINE1": "1 45379U 20019V   25315.33336806  .00083825  00000+0  22528-2 0  9994",
    "TLE_LINE2": "2 45379  53.0545 335.7506 0002125  65.7055  62.9197 15.37204030  5755",
    "COMMENT": "Grouped by shell and plane from TLE"
  },
  {
    "OBJECT_NAME": "STARLINK-1280",
    "OBJECT_ID": "20019AE",
    "EPOCH": "2025-11-11T06:38:58.135200",
    "MEAN_MOTION": 15.41136845,
    "ECCENTRICITY": 0.0004849,
    "INCLINATION": 53.0542,
    "RA_OF_ASC_NODE": 332.9968,
    "ARG_OF_PERICENTER": 26.7742,
    "MEAN_ANOMALY": 333.3512,
    "EPHEMERIS_TYPE": 0,
    "CLASSIFICATION_TYPE": "U",
    "NORAD_CAT_ID": 45388,
    "ELEMENT_SET_NO": 999,
    "REV_AT_EPOCH": 31194,
    "BSTAR": 0.0025461,
    "MEAN_MOTION_DOT": 0.00108237,
    "MEAN_MOTION_DDOT": 0.0,
    "TLE_LINE1": "1 45388U 20019AE  25315.27706175  .00108237  00000+0  25461-2 0  9991",
    "TLE_LINE2": "2 45388  53.0542 332.9968 0004849  26.7742 333.3512 15.41136845311948",
    "COMMENT": "Grouped by shell and plane from TLE"
  },
  {
    "OBJECT_NAME": "STARLINK-1278",
    "OBJECT_ID": "20019BA",
    "EPOCH": "2025-11-11T07:13:44.687424",
    "MEAN_MOTION": 15.34635053,
    "ECCENTRICITY": 0.000432,
    "INCLINATION": 53.0541,
    "RA_OF_ASC_NODE": 333.8146,
    "ARG_OF_PERICENTER": 26.5586,
    "MEAN_ANOMALY": 333.5636,
    "EPHEMERIS_TYPE": 0,
    "CLASSIFICATION_TYPE": "U",
    "NORAD_CAT_ID": 45408,
    "ELEMENT_SET_NO": 999,
    "REV_AT_EPOCH": 31166,
    "BSTAR": 0.0028506,
    "MEAN_MOTION_DOT": 0.00097955,
    "MEAN_MOTION_DDOT": 0.0,
    "TLE_LINE1": "1 45408U 20019BA  25315.30121166  .00097955  00000+0  28506-2 0  9996",
    "TLE_LINE2": "2 45408  53.0541 333.8146 0004320  26.5586 333.5636 15.34635053311661",
    "COMMENT": "Grouped by shell and plane from TLE"
  },
  {
    "OBJECT_NAME": "STARLINK-1286",
    "OBJECT_ID": "20019BK",
    "EPOCH": "2025-11-11T06:13:20.241984",
    "MEAN_MOTION": 15.36920439,
    "ECCENTRICITY": 0.0002518,
    "INCLINATION": 53.0548,
    "RA_OF_ASC_NODE": 334.3714,
    "ARG_OF_PERICENTER": 39.3931,
    "MEAN_ANOMALY": 320.7254,
    "EPHEMERIS_TYPE": 0,
    "CLASSIFICATION_TYPE": "U",
    "NORAD_CAT_ID": 45417,
    "ELEMENT_SET_NO": 999,
    "REV_AT_EPOCH": 31192,
    "BSTAR": 0.002919,
    "MEAN_MOTION_DOT": 0.00108083,
    "MEAN_MOTION_DDOT": 0.0,
    "TLE_LINE1": "1 45417U 20019BK  25315.25926206  .00108083  00000+0  29190-2 0  9993",
    "TLE_LINE2": "2 45417  53.0548 334.3714 0002518  39.3931 320.7254 15.36920439311928",
    "COMMENT": "Grouped by shell and plane from TLE"
  },
  {
    "OBJECT_NAME": "STARLINK-2582",
    "OBJECT_ID": "21040AJ",
    "EPOCH": "2025-11-11T05:37:45.621984",
    "MEAN_MOTION": 15.32566471,
    "ECCENTRICITY": 0.0008025,
    "INCLINATION": 53.0686,
    "RA_OF_ASC_NODE": 332.7813,
    "ARG_OF_PERICENTER": 335.5916,
    "MEAN_ANOMALY": 24.4704,
    "EPHEMERIS_TYPE": 0,
    "CLASSIFICATION_TYPE": "U",
    "NORAD_CAT_ID": 48460,
    "ELEMENT_SET_NO": 999,
    "REV_AT_EPOCH": 24958,
    "BSTAR": 0.0034405000000000004,
    "MEAN_MOTION_DOT": 0.00111068,
    "MEAN_MOTION_DDOT": 0.0,
    "TLE_LINE1": "1 48460U 21040AJ  25315.23455581  .00111068  00000+0  34405-2 0  9992",
    "TLE_LINE2": "2 48460  53.0686 332.7813 0008025 335.5916  24.4704 15.32566471249585",
    "COMMENT": "Grouped by shell and plane from TLE"
  },
  {
    "OBJECT_NAME": "STARLINK-5957",
    "OBJECT_ID": "23042K",
    "EPOCH": "2025-11-11T08:00:03.000384",
    "MEAN_MOTION": 15.32291,
    "ECCENTRICITY": 0.0001582,
    "INCLINATION": 43.0072,
    "RA_OF_ASC_NODE": 337.2148,
    "ARG_OF_PERICENTER": 283.6148,
    "MEAN_ANOMALY": 315.1492,
    "EPHEMERIS_TYPE": 0,
    "CLASSIFICATION_TYPE": "U",
    "NORAD_CAT_ID": 55995,
    "ELEMENT_SET_NO": 999,
    "REV_AT_EPOCH": 575,
    "BSTAR": 0.032749,
    "MEAN_MOTION_DOT": 0.01128675,
    "MEAN_MOTION_DDOT": 0.0,
    "TLE_LINE1": "1 55995U 23042K   25315.33336806  .01128675  00000+0  32749-1 0  9997",
    "TLE_LINE2": "2 55995  43.0072 337.2148 0001582 283.6148 315.1492 15.32291000  5752",
    "COMMENT": "Grouped by shell and plane from TLE"
  },
  {
    "OBJECT_NAME": "STARLINK-30996",
    "OBJECT_ID": "24038A",
    "EPOCH": "2025-11-11T02:48:29.119680",
    "MEAN_MOTION": 15.27587456,
    "ECCENTRICITY": 0.0001136,
    "INCLINATION": 43.0039,
    "RA_OF_ASC_NODE": 336.6893,
    "ARG_OF_PERICENTER": 255.1566,
    "MEAN_ANOMALY": 104.916,
    "EPHEMERIS_TYPE": 0,
    "CLASSIFICATION_TYPE": "U",
    "NORAD_CAT_ID": 59023,
    "ELEMENT_SET_NO": 999,
    "REV_AT_EPOCH": 9799,
    "BSTAR": 0.0,
    "MEAN_MOTION_DOT": -2.286e-05,
    "MEAN_MOTION_DDOT": 0.0,
    "TLE_LINE1": "1 59023U 24038A   25315.11700370 -.00002286  00000+0 -73544-4 0  9997",
    "TLE_LINE2": "2 59023  43.0039 336.6893 0001136 255.1566 104.9160 15.27587456 97994",
    "COMMENT": "Grouped by shell and plane from TLE"
  },
  {
    "OBJECT_NAME": "STARLINK-31178",
    "OBJECT_ID": "24038C",
    "EPOCH": "2025-11-11T01:29:07.950048",
    "MEAN_MOTION": 15.27579584,
    "ECCENTRICITY": 0.0001907,
    "INCLINATION": 43.0043,
    "RA_OF_ASC_NODE": 337.1391,
    "ARG_OF_PERICENTER": 259.6279,
    "MEAN_ANOMALY": 100.4358,
    "EPHEMERIS_TYPE": 0,
    "CLASSIFICATION_TYPE": "U",
    "NORAD_CAT_ID": 59025,
    "ELEMENT_SET_NO": 999,
    "REV_AT_EPOCH": 9650,
    "BSTAR": 7.337000000000001e-05,
    "MEAN_MOTION_DOT": 1.757e-05,
    "MEAN_MOTION_DDOT": 0.0,
    "TLE_LINE1": "1 59025U 24038C   25315.06189757  .00001757  00000+0  73370-4 0  9990",
    "TLE_LINE2": "2 59025  43.0043 337.1391 0001907 259.6279 100.4358 15.27579584 96505",
    "COMMENT": "Grouped by shell and plane from TLE"
  },
  {
    "OBJECT_NAME": "STARLINK-31227",
    "OBJECT_ID": "24038D",
    "EPOCH": "2025-11-11T02:33:41.164416",
    "MEAN_MOTION": 15.27580821,
    "ECCENTRICITY": 0.0001378,
    "INCLINATION": 43.0043,
    "RA_OF_ASC_NODE": 336.6123,
    "ARG_OF_PERICENTER": 277.7974,
    "MEAN_ANOMALY": 82.2721,
    "EPHEMERIS_TYPE": 0,
    "CLASSIFICATION_TYPE": "U",
    "NORAD_CAT_ID": 59026,
    "ELEMENT_SET_NO": 999,
    "REV_AT_EPOCH": 9662,
    "BSTAR": 0.00016266,
    "MEAN_MOTION_DOT": 4.217e-05,
    "MEAN_MOTION_DDOT": 0.0,
    "TLE_LINE1": "1 59026U 24038D   25315.10672644  .00004217  00000+0  16266-3 0  9992",
    "TLE_LINE2": "2 59026  43.0043 336.6123 0001378 277.7974  82.2721 15.27580821 96628",
    "COMMENT": "Grouped by shell and plane from TLE"
  },
  {
    "OBJECT_NAME": "STARLINK-30863",
    "OBJECT_ID": "24038E",
    "EPOCH": "2025-11-11T02:00:36.547776",
    "MEAN_MOTION": 15.27546634,
    "ECCENTRICITY": 0.000172,
    "INCLINATION": 42.9996,
    "RA_OF_ASC_NODE": 337.2795,
    "ARG_OF_PERICENTER": 268.4193,
    "MEAN_ANOMALY": 91.6462,
    "EPHEMERIS_TYPE": 0,
    "CLASSIFICATION_TYPE": "U",
    "NORAD_CAT_ID": 59027,
    "ELEMENT_SET_NO": 999,
    "REV_AT_EPOCH": 9650,
    "BSTAR": 0.00049213,
    "MEAN_MOTION_DOT": 0.00013291,
    "MEAN_MOTION_DDOT": 0.0,
    "TLE_LINE1": "1 59027U 24038E   25315.08375634  .00013291  00000+0  49213-3 0  9999",
    "TLE_LINE2": "2 59027  42.9996 337.2795 0001720 268.4193  91.6462 15.27546634 96504",
    "COMMENT": "Grouped by shell and plane from TLE"
  },
  {
    "OBJECT_NAME": "STARLINK-31224",
    "OBJECT_ID": "24038G",
    "EPOCH": "2025-11-11T02:22:34.947840",
    "MEAN_MOTION": 15.27569179,
    "ECCENTRICITY": 0.0001614,
    "INCLINATION": 43.0026,
    "RA_OF_ASC_NODE": 336.5508,
    "ARG_OF_PERICENTER": 280.4149,
    "MEAN_ANOMALY": 79.6521,
    "EPHEMERIS_TYPE": 0,
    "CLASSIFICATION_TYPE": "U",
    "NORAD_CAT_ID": 59029,
    "ELEMENT_SET_NO": 999,
    "REV_AT_EPOCH": 9662,
    "BSTAR": 8.7735e-05,
    "MEAN_MOTION_DOT": 2.152e-05,
    "MEAN_MOTION_DDOT": 0.0,
    "TLE_LINE1": "1 59029U 24038G   25315.09901560  .00002152  00000+0  87735-4 0  9991",
    "TLE_LINE2": "2 59029  43.0026 336.5508 0001614 280.4149  79.6521 15.27569179 96627",
    "COMMENT": "Grouped by shell and plane from TLE"
  }
]